/* FOR UNIT TEST
 * VHHH 121100Z 1212/1318 09010KT 7000 FEW010 SCT020 BKN060 TX21/1306Z TN16/1222Z TEMPO 1212/1218 3500 BR -RA TEMPO 1303/1309 VRB05KT
 * KSEA 121148Z 1212/1318 12005KT 5SM RA BR SCT015 OVC025 FM121800 12005KT 6SM -RA BR BKN015 OVC025 WS020/18045KT FM122000 22022G35KT P6SM -SHRA SCT018 BKN035 FM130200 20014KT P6SM VCSH SCT035 BKN060 FM130600 16005KT P6SM SCT060
 * TFFF 121600Z 1218/1318 12008KT 9999 SCT026 PROB40 TEMPO 1218/1302 5000 SHRA BKN017 BECMG 1300/1302 VRB02KT
 * KJFK 121733Z 1218/1324 07013G19KT 6SM -RA BR OVC008 TEMPO 1218/1220 SCT008 OVC012 FM122000 06014G23KT 6SM -RA BR OVC008 TEMPO 1220/1222 2SM -RA BR OVC004 FM122300 06017G27KT 3SM -RA BR OVC007 FM130600 06020G30KT 1SM RA BR OVC006 WS015/07045KT FM131400 06026G38KT 1SM RA BR OVC004 WS015/08055KT FM131700 06028G40KT 1SM  RA BR OVC004 WS015/08060KT
 * CYYT 121742Z 1218/1318 04008KT 2SM -SHSN BR OVC010 TEMPO 1218/1222 P6SM -SHSN OVC025 PROB30 1218/1222 3/4SM -SHSN BR OVC009 FM122200 35008KT P6SM OVC025 TEMPO 1222/1318 2SM -SHSN BR OVC010 BECMG 1304/1306 33012KT RMK NXT FCST BY 130000Z
 * LFPB 121700Z 1218/1318 34005KT 7000 BKN030 TEMPO 1220/1303 4500 -RADZ OVC008 BECMG 1303/1306 3000 BR BKN004 BECMG 1306/1309 6000 NSW BKN012 BECMG 1309/1312 02010KT SCT020 BKN030
 * TAF KBOS 270540Z 2706/2812 35011KT P6SM FEW250 FM271000 36010KT P6SM SKC FM271600 03008KT P6SM SKC FM271900 09007KT P6SM SKC FM280000 15007KT P6SM FEW250
 * LFMT 290600Z 03006KT 0500 R31/1100V1500D FG VV/// 10/10 Q1012
*/
